{
  "norad_id": 67049,
  "name": "STARLINK-35877",
  "history": [
    {
      "epoch": "2026-03-28T21:30:55.212768Z",
      "apogee_km": 484.54934336261886,
      "perigee_km": 481.3479607973577,
      "latitude_deg": -1.9462302714214228e-05,
      "longitude_deg": 140.8199866342938,
      "height_km": 483.2693908980702,
      "semi_major_axis_km": 6861.085652079988,
      "eccentricity": 0.0002333,
      "inclination_deg": 43.0038,
      "raan_deg": 289.8604,
      "arg_perigee_deg": 250.1672,
      "mean_anomaly_deg": 109.8928,
      "mean_motion_rev_day": 15.27613545
    },
    {
      "epoch": "2026-03-28T21:30:55.213632Z",
      "apogee_km": 484.54948058433183,
      "perigee_km": 481.3478235756447,
      "latitude_deg": -1.7983804736871982e-05,
      "longitude_deg": 140.81998460096682,
      "height_km": 483.26943744769267,
      "semi_major_axis_km": 6861.085652079988,
      "eccentricity": 0.00023332,
      "inclination_deg": 43.0038,
      "raan_deg": 289.8604,
      "arg_perigee_deg": 250.1672,
      "mean_anomaly_deg": 109.8928,
      "mean_motion_rev_day": 15.27613545
    },
    {
      "epoch": "2026-03-30T14:18:59.820480Z",
      "apogee_km": 483.8823698548267,
      "perigee_km": 482.2454245447725,
      "latitude_deg": -3.4545661203706135e-05,
      "longitude_deg": -122.47307612063835,
      "height_km": 482.9158287224434,
      "semi_major_axis_km": 6861.200897199799,
      "eccentricity": 0.00011929,
      "inclination_deg": 43.0007,
      "raan_deg": 280.2622,
      "arg_perigee_deg": 264.7187,
      "mean_anomaly_deg": 95.3528,
      "mean_motion_rev_day": 15.27575057
    },
    {
      "epoch": "2026-03-30T20:35:37.380192Z",
      "apogee_km": 484.1229837899755,
      "perigee_km": 481.95320577799976,
      "latitude_deg": -3.467775189098936e-05,
      "longitude_deg": 141.63523390572303,
      "height_km": 482.7760107756099,
      "semi_major_axis_km": 6861.175094783987,
      "eccentricity": 0.00015812,
      "inclination_deg": 42.9995,
      "raan_deg": 278.7848,
      "arg_perigee_deg": 272.0541,
      "mean_anomaly_deg": 88.0129,
      "mean_motion_rev_day": 15.27583674
    },
    {
      "epoch": "2026-03-31T12:17:11.378400Z",
      "apogee_km": 484.02200473695575,
      "perigee_km": 482.0355600196426,
      "latitude_deg": -7.484301050331749e-06,
      "longitude_deg": -98.09627487252124,
      "height_km": 482.971810268023,
      "semi_major_axis_km": 6861.165782378299,
      "eccentricity": 0.00014476,
      "inclination_deg": 43.0015,
      "raan_deg": 275.0894,
      "arg_perigee_deg": 260.3695,
      "mean_anomaly_deg": 99.6993,
      "mean_motion_rev_day": 15.27586784
    },
    {
      "epoch": "2026-04-01T18:06:09.647712Z",
      "apogee_km": 483.9623371945472,
      "perigee_km": 482.0233818962397,
      "latitude_deg": 1.5768268350367632e-05,
      "longitude_deg": 166.42395549405762,
      "height_km": 482.74251281193307,
      "semi_major_axis_km": 6861.129859545394,
      "eccentricity": 0.0001413,
      "inclination_deg": 43.0017,
      "raan_deg": 268.0769,
      "arg_perigee_deg": 271.6106,
      "mean_anomaly_deg": 88.4584,
      "mean_motion_rev_day": 15.27598781
    },
    {
      "epoch": "2026-04-02T20:46:51.402144Z",
      "apogee_km": 483.8725773811966,
      "perigee_km": 482.50044990493734,
      "latitude_deg": 3.533937714233715e-05,
      "longitude_deg": 118.87536305513727,
      "height_km": 482.90085168705895,
      "semi_major_axis_km": 6861.323513643067,
      "eccentricity": 9.999e-05,
      "inclination_deg": 43.0017,
      "raan_deg": 261.7979,
      "arg_perigee_deg": 275.2031,
      "mean_anomaly_deg": 84.8707,
      "mean_motion_rev_day": 15.27534109
    },
    {
      "epoch": "2026-04-03T18:45:01.125792Z",
      "apogee_km": 483.6673325791944,
      "perigee_km": 482.0289293299229,
      "latitude_deg": -8.32350510233538e-06,
      "longitude_deg": 143.26175145892276,
      "height_km": 482.6750009667233,
      "semi_major_axis_km": 6860.985130954558,
      "eccentricity": 0.0001194,
      "inclination_deg": 43.0037,
      "raan_deg": 256.6271,
      "arg_perigee_deg": 266.5047,
      "mean_anomaly_deg": 93.5668,
      "mean_motion_rev_day": 15.27647117
    },
    {
      "epoch": "2026-04-04T19:51:30.143808Z",
      "apogee_km": 484.0503610226706,
      "perigee_km": 481.86716035161953,
      "latitude_deg": -1.7446943315605342e-05,
      "longitude_deg": 119.702981120462,
      "height_km": 482.8438333438786,
      "semi_major_axis_km": 6861.095760687144,
      "eccentricity": 0.0001591,
      "inclination_deg": 43.0031,
      "raan_deg": 250.7204,
      "arg_perigee_deg": 264.3277,
      "mean_anomaly_deg": 95.7393,
      "mean_motion_rev_day": 15.27610169
    },
    {
      "epoch": "2026-04-05T11:33:05.036256Z",
      "apogee_km": 483.79695083881325,
      "perigee_km": 482.3261843138671,
      "latitude_deg": 1.2907808507019989e-05,
      "longitude_deg": -120.03116240054167,
      "height_km": 483.5145020239237,
      "semi_major_axis_km": 6861.19856757634,
      "eccentricity": 0.00010718,
      "inclination_deg": 43.0016,
      "raan_deg": 247.0261,
      "arg_perigee_deg": 202.9788,
      "mean_anomaly_deg": 157.1016,
      "mean_motion_rev_day": 15.27575835
    },
    {
      "epoch": "2026-04-05T19:23:52.576224Z",
      "apogee_km": 484.1039643175882,
      "perigee_km": 482.096366323015,
      "latitude_deg": -2.9728404647682407e-05,
      "longitude_deg": 120.10566244515955,
      "height_km": 482.62134373015977,
      "semi_major_axis_km": 6861.237165320302,
      "eccentricity": 0.0001463,
      "inclination_deg": 43.0008,
      "raan_deg": 245.1833,
      "arg_perigee_deg": 284.7557,
      "mean_anomaly_deg": 75.3132,
      "mean_motion_rev_day": 15.27562945
    },
    {
      "epoch": "2026-04-05T19:23:52.577088Z",
      "apogee_km": 484.1041015423316,
      "perigee_km": 482.0962290982725,
      "latitude_deg": -2.821705089394097e-05,
      "longitude_deg": 120.10566044704552,
      "height_km": 482.6213087851832,
      "semi_major_axis_km": 6861.237165320302,
      "eccentricity": 0.00014632,
      "inclination_deg": 43.0008,
      "raan_deg": 245.1833,
      "arg_perigee_deg": 284.7557,
      "mean_anomaly_deg": 75.3132,
      "mean_motion_rev_day": 15.27562945
    },
    {
      "epoch": "2026-04-07T16:54:23.853600Z",
      "apogee_km": 483.90302241608424,
      "perigee_km": 482.0971711322136,
      "latitude_deg": 1.654657131287577e-05,
      "longitude_deg": 144.89550909022125,
      "height_km": 482.95256282950436,
      "semi_major_axis_km": 6861.137096774149,
      "eccentricity": 0.0001316,
      "inclination_deg": 43.003,
      "raan_deg": 234.4724,
      "arg_perigee_deg": 258.789,
      "mean_anomaly_deg": 101.2814,
      "mean_motion_rev_day": 15.27596364
    },
    {
      "epoch": "2026-04-08T10:10:07.581504Z",
      "apogee_km": 483.6182727669866,
      "perigee_km": 482.4485804326605,
      "latitude_deg": -2.6512035550664656e-05,
      "longitude_deg": -118.80986977509374,
      "height_km": 483.3444031521982,
      "semi_major_axis_km": 6861.170426599823,
      "eccentricity": 8.524e-05,
      "inclination_deg": 42.9991,
      "raan_deg": 230.4082,
      "arg_perigee_deg": 203.7297,
      "mean_anomaly_deg": 156.3515,
      "mean_motion_rev_day": 15.27585233
    },
    {
      "epoch": "2026-04-09T01:51:41.651424Z",
      "apogee_km": 483.9710140286343,
      "perigee_km": 482.08638903373776,
      "latitude_deg": 1.191173882376272e-05,
      "longitude_deg": 1.4661309147040416,
      "height_km": 482.636671027637,
      "semi_major_axis_km": 6861.165701531186,
      "eccentricity": 0.00013734,
      "inclination_deg": 43.0051,
      "raan_deg": 226.7206,
      "arg_perigee_deg": 280.3491,
      "mean_anomaly_deg": 79.7206,
      "mean_motion_rev_day": 15.27586811
    },
    {
      "epoch": "2026-04-10T09:14:48.960096Z",
      "apogee_km": 483.67295587736135,
      "perigee_km": 482.31445199798145,
      "latitude_deg": -2.45814685468419e-06,
      "longitude_deg": -117.99339188882726,
      "height_km": 483.26480893535063,
      "semi_major_axis_km": 6861.130703937671,
      "eccentricity": 9.9e-05,
      "inclination_deg": 43.0001,
      "raan_deg": 219.3305,
      "arg_perigee_deg": 223.2069,
      "mean_anomaly_deg": 136.8705,
      "mean_motion_rev_day": 15.27598499
    },
    {
      "epoch": "2026-04-11T16:37:56.936640Z",
      "apogee_km": 484.2283579644318,
      "perigee_km": 481.8941783136115,
      "latitude_deg": 2.2098761023741557e-05,
      "longitude_deg": 122.55473745312955,
      "height_km": 482.6356395831417,
      "semi_major_axis_km": 6861.198268139021,
      "eccentricity": 0.0001701,
      "inclination_deg": 43.0044,
      "raan_deg": 211.9508,
      "arg_perigee_deg": 280.0203,
      "mean_anomaly_deg": 80.0457,
      "mean_motion_rev_day": 15.27575935
    },
    {
      "epoch": "2026-04-13T06:17:42.126432Z",
      "apogee_km": 483.5905665086784,
      "perigee_km": 482.44873281904256,
      "latitude_deg": 2.54109976234609e-05,
      "longitude_deg": -92.7960967224171,
      "height_km": 482.74327375882996,
      "semi_major_axis_km": 6861.156649663861,
      "eccentricity": 8.321e-05,
      "inclination_deg": 42.9993,
      "raan_deg": 203.085,
      "arg_perigee_deg": 275.277,
      "mean_anomaly_deg": 84.7987,
      "mean_motion_rev_day": 15.27589834
    },
    {
      "epoch": "2026-04-14T13:40:49.963872Z",
      "apogee_km": 483.95399534380067,
      "perigee_km": 482.1110852052816,
      "latitude_deg": 1.172682215484598e-07,
      "longitude_deg": 147.7476644862746,
      "height_km": 482.7572566176724,
      "semi_major_axis_km": 6861.169540274541,
      "eccentricity": 0.0001343,
      "inclination_deg": 43.0037,
      "raan_deg": 195.7004,
      "arg_perigee_deg": 273.2572,
      "mean_anomaly_deg": 86.8126,
      "mean_motion_rev_day": 15.27585529
    }
  ]
}